H1 CPF  1  DLR 2021 11 12 10  8162 technosat            
H2  1704205 6203    42829 2021 11 12 00 00 00 2021 11 19 00 00 00    60 1 1  0 0 0
H9
10 0 59536  50400.000000  0       -341687.186      -3959064.101       5715351.635
10 0 59536  50460.000000  0       -428045.742      -3578460.191       5955580.987
10 0 59536  50520.000000  0       -509199.255      -3182029.587       6170507.806
10 0 59536  50580.000000  0       -584675.381      -2771497.699       6359230.383
10 0 59536  50640.000000  0       -654041.340      -2348651.770       6520958.714
10 0 59536  50700.000000  0       -716906.181      -1915332.960       6655017.578
10 0 59536  50760.000000  0       -772922.812      -1473428.231       6760849.136
10 0 59536  50820.000000  0       -821789.774      -1024862.016       6838015.083
10 0 59536  50880.000000  0       -863252.769       -571587.748       6886198.265
10 0 59536  50940.000000  0       -897105.913       -115579.308       6905203.783
10 0 59536  51000.000000  0       -923192.685        341177.555       6894959.625
10 0 59536  51060.000000  0       -941406.598        796693.893       6855516.827
10 0 59536  51120.000000  0       -951691.578       1248986.178       6787049.104
10 0 59536  51180.000000  0       -954042.075       1696084.890       6689852.052
10 0 59536  51240.000000  0       -948502.898       2136043.062       6564341.850
10 0 59536  51300.000000  0       -935168.771       2566944.700       6411053.493
10 0 59536  51360.000000  0       -914183.634       2986913.090       6230638.604
10 0 59536  51420.000000  0       -885739.674       3394119.015       6023862.752
10 0 59536  51480.000000  0       -850076.065       3786788.724       5791602.254
10 0 59536  51540.000000  0       -807477.435       4163211.655       5534840.595
10 0 59536  51600.000000  0       -758272.103       4521747.953       5254664.448
10 0 59536  51660.000000  0       -702830.110       4860835.770       4952259.254
10 0 59536  51720.000000  0       -641560.962       5178998.276       4628904.295
10 0 59536  51780.000000  0       -574911.130       5474850.220       4285967.273
10 0 59536  51840.000000  0       -503361.328       5747103.949       3924898.625
10 0 59536  51900.000000  0       -427423.660       5994575.160       3547225.690
10 0 59536  51960.000000  0       -347638.625       6216188.461       3154546.417
10 0 59536  52020.000000  0       -264571.894       6410982.463       2748522.477
10 0 59536  52080.000000  0       -178810.864       6578114.070       2330871.986
10 0 59536  52140.000000  0        -90961.074       6716862.164       1903362.239
10 0 59536  52200.000000  0         -1642.554       6826630.890       1467802.177
10 0 59536  52260.000000  0         88513.916       6906952.320       1026034.611
10 0 59536  52320.000000  0        178870.613       6957488.524        579928.337
10 0 59536  52380.000000  0        268786.748       6978033.094        131370.099
10 0 59536  52440.000000  0        357622.384       6968511.996       -317743.592
10 0 59536  52500.000000  0        444742.320       6928983.731       -765514.667
10 0 59536  52560.000000  0        529519.901       6859638.868      -1210051.645
10 0 59536  52620.000000  0        611340.781       6760799.003      -1649477.733
10 0 59536  52680.000000  0        689606.618       6632915.103      -2081938.835
10 0 59536  52740.000000  0        763738.690       6476565.268      -2505611.439
10 0 59536  52800.000000  0        833181.411       6292451.901      -2918710.334
10 0 59536  52860.000000  0        897405.718       6081398.335      -3319496.151
10 0 59536  52920.000000  0        955912.300       5844344.892      -3706282.662
10 0 59536  52980.000000  0       1008234.659       5582344.428      -4077443.813
10 0 59536  53040.000000  0       1053941.987       5296557.391      -4431420.447
10 0 59536  53100.000000  0       1092641.841       4988246.416      -4766726.702
10 0 59536  53160.000000  0       1123982.619       4658770.508      -5081956.039
10 0 59536  53220.000000  0       1147655.786       4309578.856      -5375786.892
10 0 59536  53280.000000  0       1163397.858       3942204.328      -5646987.975
10 0 59536  53340.000000  0       1170992.141       3558256.619      -5894423.222
10 0 59536  53400.000000  0       1170270.231       3159415.058      -6117056.288
10 0 59536  53460.000000  0       1161113.242       2747421.205      -6313954.560
10 0 59536  53520.000000  0       1143452.769       2324071.260      -6484292.759
10 0 59536  53580.000000  0       1117271.595       1891208.354      -6627356.132
10 0 59536  53640.000000  0       1082604.137       1450714.659      -6742543.315
10 0 59536  53700.000000  0       1039536.593       1004503.278      -6829368.709
10 0 59536  53760.000000  0        988206.845        554510.113      -6887464.360
10 0 59536  53820.000000  0        928804.106        102685.641      -6916581.481
10 0 59536  53880.000000  0        861568.242       -349013.416      -6916591.478
10 0 59536  53940.000000  0        786788.828       -798632.355      -6887486.467
10 0 59536  54000.000000  0        704803.978      -1244226.726      -6829379.415
10 0 59536  54060.000000  0        615998.904      -1683870.525      -6742503.818
10 0 59536  54120.000000  0        520804.233      -2115664.289      -6627213.010
10 0 59536  54180.000000  0        419694.054      -2537743.208      -6483979.138
10 0 59536  54240.000000  0        313183.652      -2948285.250      -6313391.549
10 0 59536  54300.000000  0        201827.019      -3345519.056      -6116154.613
10 0 59536  54360.000000  0         86214.173      -3727731.594      -5893085.129
10 0 59536  54420.000000  0        -33031.743      -4093275.642      -5645109.326
10 0 59536  54480.000000  0       -155257.597      -4440577.068      -5373259.419
10 0 59536  54540.000000  0       -279783.623      -4768141.859      -5078669.676
10 0 59536  54600.000000  0       -405906.969      -5074562.849      -4762572.037
10 0 59536  54660.000000  0       -532905.432      -5358526.131      -4426291.271
10 0 59536  54720.000000  0       -660041.338      -5618817.087      -4071239.679
10 0 59536  54780.000000  0       -786565.570      -5854325.998      -3698911.366
10 0 59536  54840.000000  0       -911721.698      -6064053.208      -3310876.108
10 0 59536  54900.000000  0      -1034750.222      -6247113.802      -2908772.859
10 0 59536  54960.000000  0      -1154892.886      -6402741.823      -2494302.893
10 0 59536  55020.000000  0      -1271397.044      -6530293.965      -2069222.551
10 0 59536  55080.000000  0      -1383520.027      -6629252.644      -1635335.672
10 0 59536  55140.000000  0      -1490533.509      -6699228.472      -1194485.764
10 0 59536  55200.000000  0      -1591727.828      -6739962.115       -748547.934
10 0 59536  55260.000000  0      -1686416.255      -6751325.482       -299420.641
10 0 59536  55320.000000  0      -1773939.167      -6733322.297        150982.692
10 0 59536  55380.000000  0      -1853668.122      -6686087.990        600742.168
10 0 59536  55440.000000  0      -1925009.771      -6609888.937       1047939.960
10 0 59536  55500.000000  0      -1987409.604      -6505121.035       1490668.855
10 0 59536  55560.000000  0      -2040355.490      -6372307.630       1927040.767
10 0 59536  55620.000000  0      -2083380.997      -6212096.792       2355195.145
10 0 59536  55680.000000  0      -2116068.455      -6025257.963       2773307.235
10 0 59536  55740.000000  0      -2138051.752      -5812678.002       3179596.122
10 0 59536  55800.000000  0      -2149018.856      -5575356.693       3572332.545
10 0 59536  55860.000000  0      -2148714.040      -5314401.719       3949846.426
10 0 59536  55920.000000  0      -2136939.790      -5031023.144       4310534.078
10 0 59536  55980.000000  0      -2113558.430      -4726527.471       4652865.054
10 0 59536  56040.000000  0      -2078493.438      -4402311.301       4975388.682
10 0 59536  56100.000000  0      -2031730.446      -4059854.555       5276740.243
10 0 59536  56160.000000  0      -1973317.869      -3700713.284       5555646.676
10 0 59536  56220.000000  0      -1903367.187      -3326512.238       5810931.749
10 0 59536  56280.000000  0      -1822052.884      -2938937.235       6041520.828
10 0 59536  56340.000000  0      -1729612.069      -2539727.325       6246445.140
10 0 59536  56400.000000  0      -1626343.781      -2130666.833       6424845.608
10 0 59536  56460.000000  0      -1512608.002      -1713577.232       6575976.259
10 0 59536  56520.000000  0      -1388824.356      -1290308.848       6699207.109
10 0 59536  56580.000000  0      -1255470.517       -862732.509       6794026.492
10 0 59536  56640.000000  0      -1113080.345       -432731.243       6860042.874
10 0 59536  56700.000000  0       -962241.712         -2192.051       6896986.276
10 0 59536  56760.000000  0       -803594.035        427002.370       6904709.274
10 0 59536  56820.000000  0       -637825.522        852981.867       6883187.455
10 0 59536  56880.000000  0       -465670.143       1273896.953       6832519.363
10 0 59536  56940.000000  0       -287904.366       1687926.782       6752925.987
10 0 59536  57000.000000  0       -105343.636       2093287.020       6644749.756
10 0 59536  57060.000000  0         81161.358       2488237.456       6508453.017
10 0 59536  57120.000000  0        270728.611       2871089.398       6344616.116
10 0 59536  57180.000000  0        462448.908       3240212.894       6153935.032
10 0 59536  57240.000000  0        655390.128       3594043.711       5937218.511
10 0 59536  57300.000000  0        848601.711       3931089.981       5695384.726
10 0 59536  57360.000000  0       1041119.255       4249938.529       5429457.532
10 0 59536  57420.000000  0       1231969.259       4549260.911       5140562.290
10 0 59536  57480.000000  0       1420173.966       4827819.094       4829921.211
10 0 59536  57540.000000  0       1604756.258       5084470.667       4498848.242
99
